[{"OBJECT_NAME":"HELIOS 1B","OBJECT_ID":"1999-064A","EPOCH":"2026-04-22T05:28:07.904928","MEAN_MOTION":14.87850488,"ECCENTRICITY":4.547e-5,"INCLINATION":98.1654,"RA_OF_ASC_NODE":15.7435,"ARG_OF_PERICENTER":55.1767,"MEAN_ANOMALY":304.9491,"EPHEMERIS_TYPE":0,"CLASSIFICATION_TYPE":"U","NORAD_CAT_ID":25977,"ELEMENT_SET_NO":999,"REV_AT_EPOCH":69173,"BSTAR":0.00012084336,"MEAN_MOTION_DOT":1.046e-5,"MEAN_MOTION_DDOT":0},{"OBJECT_NAME":"TERRA","OBJECT_ID":"1999-068A","EPOCH":"2026-04-22T06:32:34.831968","MEAN_MOTION":14.61057133,"ECCENTRICITY":0.00033776,"INCLINATION":97.9509,"RA_OF_ASC_NODE":164.0227,"ARG_OF_PERICENTER":64.1173,"MEAN_ANOMALY":0.4527,"EPHEMERIS_TYPE":0,"CLASSIFICATION_TYPE":"U","NORAD_CAT_ID":25994,"ELEMENT_SET_NO":999,"REV_AT_EPOCH":40144,"BSTAR":6.482994e-5,"MEAN_MOTION_DOT":2.74e-6,"MEAN_MOTION_DDOT":0},{"OBJECT_NAME":"SL-16 R/B","OBJECT_ID":"2000-006B","EPOCH":"2026-04-22T02:37:59.983392","MEAN_MOTION":14.15828742,"ECCENTRICITY":0.0014679,"INCLINATION":71.0043,"RA_OF_ASC_NODE":6.5391,"ARG_OF_PERICENTER":119.4258,"MEAN_ANOMALY":240.8332,"EPHEMERIS_TYPE":0,"CLASSIFICATION_TYPE":"U","NORAD_CAT_ID":26070,"ELEMENT_SET_NO":999,"REV_AT_EPOCH":35470,"BSTAR":8.4977927e-5,"MEAN_MOTION_DOT":1.2e-6,"MEAN_MOTION_DDOT":0},{"OBJECT_NAME":"TITAN 4B R/B","OBJECT_ID":"2000-047B","EPOCH":"2026-04-22T05:20:22.027488","MEAN_MOTION":15.09893061,"ECCENTRICITY":0.0042116,"INCLINATION":67.9883,"RA_OF_ASC_NODE":278.0615,"ARG_OF_PERICENTER":345.5519,"MEAN_ANOMALY":14.4422,"EPHEMERIS_TYPE":0,"CLASSIFICATION_TYPE":"U","NORAD_CAT_ID":26474,"ELEMENT_SET_NO":999,"REV_AT_EPOCH":39948,"BSTAR":0.00013309204,"MEAN_MOTION_DOT":2.066e-5,"MEAN_MOTION_DDOT":0},{"OBJECT_NAME":"ENVISAT","OBJECT_ID":"2002-009A","EPOCH":"2026-04-22T07:06:49.912128","MEAN_MOTION":14.39050866,"ECCENTRICITY":0.00011634,"INCLINATION":98.3793,"RA_OF_ASC_NODE":64.8752,"ARG_OF_PERICENTER":86.3614,"MEAN_ANOMALY":73.3608,"EPHEMERIS_TYPE":0,"CLASSIFICATION_TYPE":"U","NORAD_CAT_ID":27386,"ELEMENT_SET_NO":999,"REV_AT_EPOCH":26544,"BSTAR":3.9015422e-5,"MEAN_MOTION_DOT":7.8e-7,"MEAN_MOTION_DDOT":0},{"OBJECT_NAME":"IDEFIX & ARIANE 42P R/B","OBJECT_ID":"2002-021B","EPOCH":"2026-04-22T06:21:59.831712","MEAN_MOTION":14.31053533,"ECCENTRICITY":0.00129113,"INCLINATION":98.5917,"RA_OF_ASC_NODE":50.3645,"ARG_OF_PERICENTER":61.6867,"MEAN_ANOMALY":298.5617,"EPHEMERIS_TYPE":0,"CLASSIFICATION_TYPE":"U","NORAD_CAT_ID":27422,"ELEMENT_SET_NO":999,"REV_AT_EPOCH":25025,"BSTAR":8.4022345e-5,"MEAN_MOTION_DOT":1.78e-6,"MEAN_MOTION_DDOT":0},{"OBJECT_NAME":"AQUA","OBJECT_ID":"2002-022A","EPOCH":"2026-04-22T06:55:29.466336","MEAN_MOTION":14.62067344,"ECCENTRICITY":0.0001968,"INCLINATION":98.424,"RA_OF_ASC_NODE":80.472,"ARG_OF_PERICENTER":100.0685,"MEAN_ANOMALY":6.1846,"EPHEMERIS_TYPE":0,"CLASSIFICATION_TYPE":"U","NORAD_CAT_ID":27424,"ELEMENT_SET_NO":999,"REV_AT_EPOCH":27510,"BSTAR":0.00013100206,"MEAN_MOTION_DOT":6.08e-6,"MEAN_MOTION_DDOT":0},{"OBJECT_NAME":"CZ-4B R/B","OBJECT_ID":"2002-024C","EPOCH":"2026-04-22T03:22:02.593056","MEAN_MOTION":14.14555023,"ECCENTRICITY":0.00490745,"INCLINATION":98.8752,"RA_OF_ASC_NODE":165.3096,"ARG_OF_PERICENTER":259.3189,"MEAN_ANOMALY":116.5933,"EPHEMERIS_TYPE":0,"CLASSIFICATION_TYPE":"U","NORAD_CAT_ID":27432,"ELEMENT_SET_NO":999,"REV_AT_EPOCH":23538,"BSTAR":2.7987746e-5,"MEAN_MOTION_DOT":9.0e-8,"MEAN_MOTION_DDOT":0},{"OBJECT_NAME":"MIDORI II (ADEOS-II)","OBJECT_ID":"2002-056A","EPOCH":"2026-04-22T06:37:38.955648","MEAN_MOTION":14.29316111,"ECCENTRICITY":6.189e-5,"INCLINATION":98.7838,"RA_OF_ASC_NODE":71.076,"ARG_OF_PERICENTER":146.7864,"MEAN_ANOMALY":213.3356,"EPHEMERIS_TYPE":0,"CLASSIFICATION_TYPE":"U","NORAD_CAT_ID":27597,"ELEMENT_SET_NO":999,"REV_AT_EPOCH":21652,"BSTAR":9.9457199e-5,"MEAN_MOTION_DOT":2.08e-6,"MEAN_MOTION_DDOT":0},{"OBJECT_NAME":"H-2A R/B","OBJECT_ID":"2002-056E","EPOCH":"2026-04-21T21:43:10.741152","MEAN_MOTION":14.33790345,"ECCENTRICITY":0.0070966,"INCLINATION":98.3271,"RA_OF_ASC_NODE":70.6456,"ARG_OF_PERICENTER":33.7231,"MEAN_ANOMALY":27.4522,"EPHEMERIS_TYPE":0,"CLASSIFICATION_TYPE":"U","NORAD_CAT_ID":27601,"ELEMENT_SET_NO":999,"REV_AT_EPOCH":22030,"BSTAR":9.9698e-5,"MEAN_MOTION_DOT":2.43e-6,"MEAN_MOTION_DDOT":0},{"OBJECT_NAME":"CZ-4B R/B","OBJECT_ID":"2003-049C","EPOCH":"2026-04-21T21:54:45.734112","MEAN_MOTION":14.55056668,"ECCENTRICITY":0.0049329,"INCLINATION":98.69,"RA_OF_ASC_NODE":108.5243,"ARG_OF_PERICENTER":99.589,"MEAN_ANOMALY":261.0885,"EPHEMERIS_TYPE":0,"CLASSIFICATION_TYPE":"U","NORAD_CAT_ID":28059,"ELEMENT_SET_NO":999,"REV_AT_EPOCH":19288,"BSTAR":7.216e-5,"MEAN_MOTION_DOT":2.65e-6,"MEAN_MOTION_DDOT":0},{"OBJECT_NAME":"CZ-2C R/B","OBJECT_ID":"2004-012C","EPOCH":"2026-04-22T03:41:51.337824","MEAN_MOTION":15.69869245,"ECCENTRICITY":0.00140084,"INCLINATION":97.7132,"RA_OF_ASC_NODE":181.7279,"ARG_OF_PERICENTER":148.3656,"MEAN_ANOMALY":211.845,"EPHEMERIS_TYPE":0,"CLASSIFICATION_TYPE":"U","NORAD_CAT_ID":28222,"ELEMENT_SET_NO":999,"REV_AT_EPOCH":21108,"BSTAR":0.00051851065,"MEAN_MOTION_DOT":0.00062446,"MEAN_MOTION_DDOT":0},{"OBJECT_NAME":"SL-16 R/B","OBJECT_ID":"2004-021B","EPOCH":"2026-04-22T03:46:32.539584","MEAN_MOTION":14.14605294,"ECCENTRICITY":0.00067238,"INCLINATION":70.9992,"RA_OF_ASC_NODE":141.2758,"ARG_OF_PERICENTER":313.6469,"MEAN_ANOMALY":46.4095,"EPHEMERIS_TYPE":0,"CLASSIFICATION_TYPE":"U","NORAD_CAT_ID":28353,"ELEMENT_SET_NO":999,"REV_AT_EPOCH":12898,"BSTAR":-6.7507353e-5,"MEAN_MOTION_DOT":-1.77e-6,"MEAN_MOTION_DDOT":0},{"OBJECT_NAME":"CZ-4B R/B","OBJECT_ID":"2004-035C","EPOCH":"2026-04-22T00:35:29.188032","MEAN_MOTION":15.29763339,"ECCENTRICITY":0.00319946,"INCLINATION":97.3426,"RA_OF_ASC_NODE":145.7532,"ARG_OF_PERICENTER":171.5678,"MEAN_ANOMALY":188.6107,"EPHEMERIS_TYPE":0,"CLASSIFICATION_TYPE":"U","NORAD_CAT_ID":28415,"ELEMENT_SET_NO":999,"REV_AT_EPOCH":18653,"BSTAR":0.0002265247,"MEAN_MOTION_DOT":6.554e-5,"MEAN_MOTION_DDOT":0},{"OBJECT_NAME":"CZ-2C R/B","OBJECT_ID":"2004-046B","EPOCH":"2026-04-22T04:02:58.713504","MEAN_MOTION":14.27008769,"ECCENTRICITY":0.01400411,"INCLINATION":98.1969,"RA_OF_ASC_NODE":24.4424,"ARG_OF_PERICENTER":26.7792,"MEAN_ANOMALY":334.0533,"EPHEMERIS_TYPE":0,"CLASSIFICATION_TYPE":"U","NORAD_CAT_ID":28480,"ELEMENT_SET_NO":999,"REV_AT_EPOCH":11470,"BSTAR":5.9634222e-5,"MEAN_MOTION_DOT":1.2e-6,"MEAN_MOTION_DDOT":0},{"OBJECT_NAME":"ARIANE 5 R/B","OBJECT_ID":"2004-049H","EPOCH":"2026-04-21T22:47:21.158016","MEAN_MOTION":14.85345826,"ECCENTRICITY":0.00834235,"INCLINATION":98.2685,"RA_OF_ASC_NODE":282.0444,"ARG_OF_PERICENTER":210.1114,"MEAN_ANOMALY":149.529,"EPHEMERIS_TYPE":0,"CLASSIFICATION_TYPE":"U","NORAD_CAT_ID":28499,"ELEMENT_SET_NO":999,"REV_AT_EPOCH":15221,"BSTAR":8.0434911e-5,"MEAN_MOTION_DOT":6.7e-6,"MEAN_MOTION_DDOT":0},{"OBJECT_NAME":"CZ-2D R/B","OBJECT_ID":"2005-024B","EPOCH":"2026-04-22T00:15:46.809216","MEAN_MOTION":15.64053897,"ECCENTRICITY":0.00041925,"INCLINATION":97.3546,"RA_OF_ASC_NODE":128.871,"ARG_OF_PERICENTER":180.278,"MEAN_ANOMALY":179.8478,"EPHEMERIS_TYPE":0,"CLASSIFICATION_TYPE":"U","NORAD_CAT_ID":28738,"ELEMENT_SET_NO":999,"REV_AT_EPOCH":14654,"BSTAR":0.00044316832,"MEAN_MOTION_DOT":0.00041901,"MEAN_MOTION_DDOT":0}]
