HELIOS 1B               
1 25977U 99064A   26112.22786927  .00001046  00000+0  12084-3 0  9991
2 25977  98.1654  15.7435 0000454  55.1767 304.9491 14.87850488691733
TERRA                   
1 25994U 99068A   26112.27262537  .00000274  00000+0  64830-4 0  9994
2 25994  97.9509 164.0227 0003377  64.1173   0.4527 14.61057133401446
SL-16 R/B               
1 26070U 00006B   26112.10972203  .00000120  00000+0  84978-4 0  9999
2 26070  71.0043   6.5391 0014679 119.4258 240.8332 14.15828742354706
TITAN 4B R/B            
1 26474U 00047B   26112.22247717  .00002066  00000+0  13309-3 0  9990
2 26474  67.9883 278.0615 0042116 345.5519  14.4422 15.09893061399483
ENVISAT                 
1 27386U 02009A   26112.29641102  .00000078  00000+0  39015-4 0  9990
2 27386  98.3793  64.8752 0001163  86.3614  73.3608 14.39050866265448
IDEFIX & ARIANE 42P R/B 
1 27422U 02021B   26112.26527583  .00000178  00000+0  84022-4 0  9997
2 27422  98.5917  50.3645 0012911  61.6867 298.5617 14.31053533250259
AQUA                    
1 27424U 02022A   26112.28853549  .00000608  00000+0  13100-3 0  9992
2 27424  98.4240  80.4720 0001968 100.0685   6.1846 14.62067344275100
CZ-4B R/B               
1 27432U 02024C   26112.14030779  .00000009  00000+0  27988-4 0  9995
2 27432  98.8752 165.3096 0049074 259.3189 116.5933 14.14555023235389
MIDORI II (ADEOS-II)    
1 27597U 02056A   26112.27614532  .00000208  00000+0  99457-4 0  9992
2 27597  98.7838  71.0760 0000618 146.7864 213.3356 14.29316111216525
H-2A R/B                
1 27601U 02056E   26111.90498543  .00000243  00000+0  99698-4 0  9995
2 27601  98.3271  70.6456 0070966  33.7231  27.4522 14.33790345220301
CZ-4B R/B               
1 28059U 03049C   26111.91302933  .00000265  00000+0  72160-4 0  9993
2 28059  98.6900 108.5243 0049329  99.5890 261.0885 14.55056668192882
CZ-2C R/B               
1 28222U 04012C   26112.15406641  .00062446  00000+0  51851-3 0  9996
2 28222  97.7132 181.7279 0014008 148.3656 211.8450 15.69869245211086
SL-16 R/B               
1 28353U 04021B   26112.15732106 -.00000177  00000+0 -67507-4 0  9990
2 28353  70.9992 141.2758 0006723 313.6469  46.4095 14.14605294128989
CZ-4B R/B               
1 28415U 04035C   26112.02464338  .00006554  00000+0  22652-3 0  9993
2 28415  97.3426 145.7532 0031994 171.5678 188.6107 15.29763339186533
CZ-2C R/B               
1 28480U 04046B   26112.16873511  .00000120  00000+0  59634-4 0  9993
2 28480  98.1969  24.4424 0140041  26.7792 334.0533 14.27008769114707
ARIANE 5 R/B            
1 28499U 04049H   26111.94955044  .00000670  00000+0  80435-4 0  9996
2 28499  98.2685 282.0444 0083423 210.1114 149.5290 14.85345826152213
CZ-2D R/B               
1 28738U 05024B   26112.01095844  .00041901  00000+0  44317-3 0  9998
2 28738  97.3546 128.8710 0004192 180.2780 179.8478 15.64053897146545
